id,spkid,full_name,pdes,name,prefix,neo,pha,H,diameter,albedo,diameter_sigma,orbit_id,epoch,epoch_mjd,epoch_cal,equinox,e,a,q,i,om,w,ma,ad,n,tp,tp_cal,per,per_y,moid,moid_ld,sigma_e,sigma_a,sigma_q,sigma_i,sigma_om,sigma_w,sigma_ma,sigma_ad,sigma_n,sigma_tp,sigma_per,class,rms
bK04X29N,3263539,       (2004 XN29),2004 XN29,,,Y,Y,22,,,,11,2459000.5,59000,20200531,J2000,0.703433841,2.42311787,0.71861476,2.364295445,319.7491446,37.2116833,51.68263669,4.127620979,0.261301717,2458802.711,20191115.21,1377.717699,3.771985485,0.0245691,9.561556647,0.00074252,0.0045287,0.00045623,0.0030975,0.013492,0.014107,4.5404,0.0077143,0.00073254,16.822,3.8623,APO,0.54598
bK05A27V,3265824,       (2005 AV27),2005 AV27,,,Y,Y,20.5,,,,13,2459000.5,59000,20200531,J2000,0.65231123,2.2534905,0.78351334,5.86172755,67.96137857,138.8543453,175.3136164,3.72346766,0.291353659,2458398.779,20181007.28,1235.611735,3.382920561,0.0412636,16.05855521,1.21E-05,5.06E-05,9.58E-06,0.00012493,0.00053222,0.00055771,0.073654,8.37E-05,9.82E-06,0.23252,0.041644,APO,0.464
bK05C00L,3267066,       (2005 CL),2005 CL,,,Y,Y,20.3,,,,27,2459000.5,59000,20200531,J2000,0.7540909,1.987609194,0.488771188,4.442820647,318.5261509,298.4325831,135.1244087,3.4864472,0.351728515,2458616.328,20190512.83,1023.516675,2.802235933,0.0238705,9.289682485,7.58E-08,2.16E-08,1.46E-07,1.05E-05,0.00014296,0.00014066,2.82E-05,3.79E-08,5.74E-09,7.69E-05,1.67E-05,APO,0.64574
bK05D00D,3267783,       (2005 DD),2005 DD,,,Y,Y,20.3,,,,24,2459000.5,59000,20200531,J2000,0.567774168,1.934622503,0.836193821,7.324330459,157.1613398,252.2757322,284.3939056,3.033051184,0.366277062,2459206.918,20201223.42,982.8625317,2.690930956,0.0308388,12.0015358,3.78E-07,2.97E-08,7.23E-07,2.70E-05,0.00010361,0.00015614,1.47E-05,4.65E-08,8.43E-09,4.39E-05,2.26E-05,APO,0.43406
bK05E00A,3273446,       (2005 EA),2005 EA,,,Y,Y,21,,,,25,2459000.5,59000,20200531,J2000,0.639445969,1.301245407,0.469169277,14.05842505,346.8977864,298.8720048,44.40466366,2.133321538,0.663995688,2458933.625,20200325.13,542.1721953,1.484386572,0.0327269,12.73632767,3.95E-07,1.72E-08,5.11E-07,6.52E-05,2.47E-05,4.33E-05,3.80E-05,2.82E-08,1.32E-08,5.61E-05,1.07E-05,APO,0.53541
bK05E33O,3273524,       (2005 EO33),2005 EO33,,,Y,Y,21.3,,,,JPL 10,2453441.5,53441,20050312,J2000,0.572780059,1.967782016,0.840675717,4.611162827,289.7459805,158.4744318,22.48914107,3.094888315,0.357057856,2453378.515,20050108.02,1008.239964,2.760410578,0.0411356,16.00874145,0.0018065,0.0081994,5.85E-05,0.0070357,0.084008,0.10631,0.15645,0.012896,0.0022317,0.044508,6.3018,APO,0.64395
bK05EG9W,3274302,       (2005 EW169),2005 EW169,,,Y,Y,19.7,,,,37,2459000.5,59000,20200531,J2000,0.569324781,2.381273538,1.025555503,1.506491383,223.594246,221.8426722,83.99164912,3.736991573,0.268219374,2458687.355,20190722.85,1342.184922,3.674702046,0.0451508,17.57133684,1.70E-07,2.57E-08,4.06E-07,8.76E-06,0.00033562,0.00033696,1.14E-05,4.04E-08,4.35E-09,4.00E-05,2.18E-05,AMO,0.56087
bK05F03E,3275203,       (2005 FE3),2005 FE3,,,Y,Y,19.3,,,,22,2459000.5,59000,20200531,J2000,0.531592586,2.116618005,0.991439567,13.11319847,90.55970253,145.1950312,321.2579472,3.241796443,0.320066591,2459121.544,20200929.04,1124.765938,3.07944131,0.0308771,12.01644101,7.00E-08,8.42E-08,1.49E-07,2.31E-05,5.95E-05,6.88E-05,0.00011427,1.29E-07,1.91E-08,0.00036421,6.71E-05,APO,0.55262
bK05G00U,3275512,       (2005 GU),2005 GU,,,Y,Y,20,,,,26,2459000.5,59000,20200531,J2000,0.61482968,1.551658279,0.597652716,25.04792955,26.90204111,275.7805204,266.8333305,2.505663842,0.50992928,2459183.205,20201129.71,705.9802493,1.932868581,0.0132919,5.172808723,2.08E-07,2.00E-07,3.17E-07,3.40E-05,1.14E-05,3.50E-05,0.00054174,3.23E-07,9.86E-08,0.0010977,0.00013652,APO,0.36949
bK05G08J,3275514,       (2005 GJ8),2005 GJ8,,,Y,Y,20.4,,,,21,2459000.5,59000,20200531,J2000,0.551071553,1.767503801,0.793482737,3.395815593,252.6936952,214.6677532,191.0836459,2.741524865,0.41943391,2459403.225,20210707.72,858.2997018,2.349896514,0.0283924,11.04947031,1.27E-07,1.94E-08,2.32E-07,7.84E-06,0.00027259,0.00028126,3.41E-05,3.02E-08,6.92E-09,8.70E-05,1.42E-05,APO,0.50457
bK05G08Y,3275673,       (2005 GY8),2005 GY8,,,Y,Y,21.9,,,,15,2459000.5,59000,20200531,J2000,0.673340852,2.04692769,0.668647655,2.829923,179.708392,103.433654,35.56154884,3.425207725,0.336550564,2458894.835,20200215.34,1069.675819,2.928612783,0.00295995,1.151923742,2.58E-07,1.04E-07,5.41E-07,3.50E-05,0.00020214,0.00021728,0.00011579,1.74E-07,2.56E-08,0.00033601,8.14E-05,APO,0.48301
bK05G60D,3276397,       (2005 GD60),2005 GD60,,,Y,Y,21.7,,,,22,2459000.5,59000,20200531,J2000,0.374245189,1.32997779,0.832240001,9.894916669,199.0792056,100.0686073,260.4376147,1.82771558,0.64259522,2459155.438,20201101.94,560.2282567,1.533821373,0.0328705,12.79221249,3.94E-07,2.15E-08,5.12E-07,5.86E-05,3.59E-05,6.67E-05,9.37E-05,2.95E-08,1.56E-08,0.00014923,1.36E-05,APO,0.42272
bK05G81H,3276441,       (2005 GH81),2005 GH81,,,Y,Y,21.6,,,,12,2459000.5,59000,20200531,J2000,0.54510567,1.9454285,0.884964394,11.7157287,19.61315414,118.5239363,222.6935285,3.005892606,0.363229542,2459378.516,20210613.02,991.1088125,2.713508042,0.0417114,16.23282554,0.00044976,0.0018827,1.90E-05,0.0072667,0.010247,0.018488,3.0513,0.0029089,0.00052727,8.9492,1.4387,APO,0.59537
bK05J01U,3277570,       (2005 JU1),2005 JU1,,,Y,Y,21.6,,,,25,2459000.5,59000,20200531,J2000,0.686138335,2.336645396,0.733383415,6.068076409,33.06042812,269.4805795,61.18902007,3.939907377,0.275940127,2458778.753,20191022.25,1304.630843,3.571884582,0.0335074,13.04007486,1.31E-07,4.43E-08,2.94E-07,3.29E-05,3.64E-05,5.26E-05,3.24E-05,7.47E-08,7.85E-09,0.00011127,3.71E-05,APO,0.36798
bK05J81U,3278078,       (2005 JU81),2005 JU81,,,Y,Y,21.8,,,,16,2459000.5,59000,20200531,J2000,0.277526881,1.11640401,0.806571887,17.28862181,56.33589696,72.44998262,343.302201,1.426236133,0.835549131,2459020.484,20200619.98,430.8543765,1.179614994,0.0291669,11.35088247,8.66E-08,8.45E-09,1.02E-07,7.73E-05,2.14E-05,2.90E-05,3.27E-05,1.08E-08,9.49E-09,3.94E-05,4.89E-06,APO,0.30427
bK05K10J,3279221,       (2005 KJ10),2005 KJ10,,,Y,Y,21.3,,,,JPL 8,2453522.5,53522,20050601,J2000,0.587828696,1.919483345,0.791155953,8.284407094,81.40372463,233.7140882,342.9668058,3.047810736,0.370618891,2453568.459,20050716.96,971.3482207,2.659406491,0.0294546,11.46284668,0.0045048,0.018164,0.0011653,0.046953,0.0060975,0.011953,0.28012,0.028841,0.0052606,0.10361,13.787,APO,0.46061
bK05L03W,3279432,       (2005 LW3),2005 LW3,,,Y,Y,21.6,,,,15,2459000.5,59000,20200531,J2000,0.462056495,1.431072153,0.76983597,6.047989297,59.62046455,288.2057767,226.4922405,2.092308337,0.575720611,2459232.397,20210117.9,625.303304,1.711987143,0.000987058,0.384133362,9.74E-07,1.93E-08,1.38E-06,6.88E-05,0.00015026,0.00018382,3.63E-05,2.83E-08,1.17E-08,6.71E-05,1.27E-05,APO,0.51359
bK05L36X,3279740,       (2005 LX36),2005 LX36,,,Y,Y,20.8,,,,16,2459000.5,59000,20200531,J2000,0.575271853,1.029767285,0.437371151,32.96722834,252.7633739,239.1074151,178.6199252,1.622163419,0.943181858,2458811.12,20191123.62,381.6867309,1.045001317,0.0227797,8.865175849,6.96E-05,0.0001176,2.18E-05,0.0062782,0.0004447,0.0042048,0.8964,0.00018526,0.00016157,0.91796,0.065384,APO,0.62019
bK05L39W,3279787,       (2005 LW39),2005 LW39,,,Y,Y,20,,,,30,2459000.5,59000,20200531,J2000,0.715944541,1.98769415,0.564615374,28.4591092,251.5573826,275.1416512,138.4151882,3.410772927,0.351705965,2458606.946,20190503.45,1023.582298,2.802415599,0.0264789,10.30479351,6.25E-08,2.35E-09,1.24E-07,2.84E-05,2.51E-05,2.21E-05,4.17E-06,4.04E-09,6.24E-10,1.14E-05,1.82E-06,APO,0.46909
bK05N07E,3283571,       (2005 NE7),2005 NE7,,,Y,Y,19,,,,20,2459000.5,59000,20200531,J2000,0.64650158,2.046911118,0.723579847,9.52756963,80.31092574,306.9620546,7.902989882,3.370242389,0.336554651,2458977.018,20200507.52,1069.662829,2.928577219,0.0472029,18.36995259,9.44E-08,2.07E-07,2.09E-07,3.47E-05,0.00014465,0.00014769,0.00024232,3.41E-07,5.10E-08,0.00071645,0.00016221,APO,0.47521
bK05O00X,3284923,       (2005 OX),2005 OX,,,Y,Y,20.6,,,,15,2459000.5,59000,20200531,J2000,0.617640661,1.331072355,0.508947946,7.616117313,323.6373026,100.435989,195.0263999,2.153196764,0.641802757,2459257.547,20210212.05,560.9199962,1.535715253,0.0166507,6.479952919,1.63E-07,1.44E-08,2.12E-07,8.27E-06,5.73E-05,4.37E-05,2.00E-05,2.33E-08,1.04E-08,3.49E-05,9.10E-06,APO,0.57769
bK05O03D,3285304,       (2005 OD3),2005 OD3,,,Y,Y,21.2,,,,13,2459000.5,59000,20200531,J2000,0.602881303,2.372782614,0.94227634,16.19678363,323.7511878,38.26464766,10.48027319,3.803288889,0.269660383,2458961.635,20200422.14,1335.012568,3.65506521,0.00993219,3.865310382,7.12E-08,3.40E-08,1.61E-07,2.45E-05,3.41E-05,3.01E-05,3.42E-05,5.45E-08,5.80E-09,0.00012615,2.87E-05,APO,0.5418
bK05O03E,3285299,       (2005 OE3),2005 OE3,,,Y,Y,20.3,,,,52,2459000.5,59000,20200531,J2000,0.428413452,1.566748329,0.895532269,25.37140924,321.04351,58.39713567,171.9800919,2.23796439,0.502580013,2458658.306,20190623.81,716.3038532,1.961133068,0.0266476,10.37044649,5.46E-08,1.79E-08,8.02E-08,7.21E-06,1.78E-06,1.59E-05,4.92E-05,2.56E-08,8.63E-09,9.21E-05,1.23E-05,APO,0.42047
bK05P05A,3288478,       (2005 PA5),2005 PA5,,,Y,Y,21.8,,,,17,2459000.5,59000,20200531,J2000,0.226815276,1.321628844,1.021863233,15.32879943,133.0621151,149.045167,292.3785056,1.621394456,0.648693896,2459104.743,20200912.24,554.9612882,1.5194012,0.0331133,12.88670296,8.66E-08,2.69E-08,1.27E-07,2.06E-05,2.01E-05,8.24E-05,0.00016972,3.30E-08,1.98E-08,0.00026477,1.69E-05,AMO,0.43839
bK05QF1Z,3289742,       (2005 QZ151),2005 QZ151,,,Y,Y,20.3,,,,33,2459000.5,59000,20200531,J2000,0.580341892,1.937017918,0.812885275,4.851785573,20.83324229,63.07575521,139.0316443,3.061150562,0.365597836,2458620.214,20190516.71,984.6885414,2.695930298,0.00438353,1.70593837,4.76E-08,1.62E-08,8.77E-08,1.39E-05,7.61E-05,7.59E-05,2.27E-05,2.55E-08,4.57E-09,5.75E-05,1.23E-05,APO,0.64515
